{
  "type":"FeatureCollection",
  "name":"Sourced third-party legal grades",
  "features":[
    {"type":"Feature","geometry":{"type":"Point","coordinates":[-73.840576,40.768208]},"properties":{"grade_ft":13.5,"previous_grade_ft":9.1,"address":"31-25 College Point Boulevard, Queens, NY","borough":"Queens","grade_reference":"Legal grade for abutting section of College Point Boulevard","datum":"Not stated in cited court decision","effective_year":1978,"source_type":"Published New York Court of Appeals decision describing filed City Map legal grade","source_title":"Soon Duck Kim v. City of New York, 90 N.Y.2d 1 (1997)","source_url":"https://www.law.cornell.edu/nyctap/I97_0023.htm","location_basis":"Property/address display location; not asserted as exact City Map grade-point XY","confidence":"Documented grade / approximate display location","notes":"Court decision states Board of Estimate raised legal grade from 9.1 ft to 13.5 ft in June 1978 and map was filed with Queens Borough President in October 1978."}},
    {"type":"Feature","geometry":{"type":"Point","coordinates":[-73.94629,40.6938]},"properties":{"grade_ft":37.20,"address":"156 Tompkins Avenue, Brooklyn, NY 11206","borough":"Brooklyn","bbl":"3017670041","grade_reference":"L.G. value shown on filed architectural/zoning drawing for premises","datum":"NAVD88 indicated on drawing","source_type":"Publicly accessible project drawing","source_title":"156 Tompkins Avenue project drawing / zoning analysis","source_url":"https://www.scribd.com/document/798299759/156-TOMPKINS-AV-AMEND-1-2-3-10-28-24","location_basis":"Marker placed at documented property location; source drawing should be consulted for exact frontage position","confidence":"Documented third-party legal grade / approximate display location","notes":"Drawing identifies L.G. as Legal Grade and displays EL 37.20 and EL 37.75 at the site. This record represents the 37.20-ft value; marker is not asserted to be exact grade-point XY."}},
    {"type":"Feature","geometry":{"type":"Point","coordinates":[-73.94623,40.6938]},"properties":{"grade_ft":37.75,"address":"156 Tompkins Avenue, Brooklyn, NY 11206","borough":"Brooklyn","bbl":"3017670041","grade_reference":"L.G. value shown on filed architectural/zoning drawing for premises","datum":"NAVD88 indicated on drawing","source_type":"Publicly accessible project drawing","source_title":"156 Tompkins Avenue project drawing / zoning analysis","source_url":"https://www.scribd.com/document/798299759/156-TOMPKINS-AV-AMEND-1-2-3-10-28-24","location_basis":"Marker intentionally offset near documented property for display; consult source drawing for exact frontage position","confidence":"Documented third-party legal grade / approximate display location","notes":"Drawing identifies L.G. as Legal Grade and displays EL 37.20 and EL 37.75 at the site. This record represents the 37.75-ft value; display coordinate is deliberately offset to prevent overlap and is not a surveyed XY."}}
  ]
}